IRIDIUM 921             
1 24873U 97034E   24154.42959130  .00028154  00000+0  73965-3 0  9998
2 24873  86.3791 295.4180 0002481 310.5875  49.5161 15.38473194472917
IRIDIUM 26              
1 24903U 97043A   24154.76928952  .00000602  00000+0  19918-3 0  9993
2 24903  86.3950 269.8032 0001918  92.5287 267.6129 14.36382518402261
IRIDIUM 22              
1 24907U 97043E   24154.39549454  .00000558  00000+0  18826-3 0  9999
2 24907  86.3951 273.1867 0002149  92.0105 268.1337 14.35270797402284
DUMMY MASS 1            
1 24925U 97048A   24155.05407665  .00000644  00000+0  70141-4 0  9990
2 24925  86.3323 310.5221 0008740  60.2564 299.9529 14.86224578449048
DUMMY MASS 2            
1 24926U 97048B   24154.48234730  .00000648  00000+0  70998-4 0  9992
2 24926  86.3324 312.3274 0009773  69.6072 290.6201 14.85981874448505
IRIDIUM 29              
1 24944U 97051A   24154.82115464  .00000590  00000+0  19766-3 0  9997
2 24944  86.3933 302.9294 0002316  87.6740 272.4722 14.35718605398826
IRIDIUM 33              
1 24946U 97051C   24154.48560077  .00000471  00000+0  16050-3 0  9996
2 24946  86.3848 302.3221 0006232 227.4494 132.6177 14.34373503398305
IRIDIUM 28              
1 24948U 97051E   24154.83458552  .00000600  00000+0  19730-3 0  9993
2 24948  86.3939 300.6548 0001712  96.4812 263.6580 14.36671368399369
